{"fetchedAt":"2026-06-29T18:07:57.361Z","satellites":[{"id":"68589","name":"KUIPER-00285","constellationId":"kuiper","omm":{"OBJECT_NAME":"KUIPER-00285","OBJECT_ID":"2026-072S","EPOCH":"2026-06-29T12:00:02.998944","MEAN_MOTION":15.00719874,"ECCENTRICITY":0.0007654,"INCLINATION":51.8939,"RA_OF_ASC_NODE":119.6397,"ARG_OF_PERICENTER":63.1315,"MEAN_ANOMALY":214.3374,"EPHEMERIS_TYPE":0,"CLASSIFICATION_TYPE":"U","NORAD_CAT_ID":68589,"ELEMENT_SET_NO":999,"REV_AT_EPOCH":317,"BSTAR":-0.07863,"MEAN_MOTION_DOT":-0.00941454,"MEAN_MOTION_DDOT":0}},{"id":"68590","name":"KUIPER-00286","constellationId":"kuiper","omm":{"OBJECT_NAME":"KUIPER-00286","OBJECT_ID":"2026-072T","EPOCH":"2026-06-29T12:00:02.998944","MEAN_MOTION":15.18872176,"ECCENTRICITY":0.0005467,"INCLINATION":51.8818,"RA_OF_ASC_NODE":117.9895,"ARG_OF_PERICENTER":34.4801,"MEAN_ANOMALY":71.9869,"EPHEMERIS_TYPE":0,"CLASSIFICATION_TYPE":"U","NORAD_CAT_ID":68590,"ELEMENT_SET_NO":999,"REV_AT_EPOCH":568,"BSTAR":-0.12163,"MEAN_MOTION_DOT":-0.02323635,"MEAN_MOTION_DDOT":0}},{"id":"68591","name":"KUIPER-00289","constellationId":"kuiper","omm":{"OBJECT_NAME":"KUIPER-00289","OBJECT_ID":"2026-072U","EPOCH":"2026-06-29T12:00:02.998944","MEAN_MOTION":14.82703129,"ECCENTRICITY":0.0009087,"INCLINATION":51.8981,"RA_OF_ASC_NODE":123.7414,"ARG_OF_PERICENTER":95.665,"MEAN_ANOMALY":247.7712,"EPHEMERIS_TYPE":0,"CLASSIFICATION_TYPE":"U","NORAD_CAT_ID":68591,"ELEMENT_SET_NO":999,"REV_AT_EPOCH":432,"BSTAR":-0.0085358,"MEAN_MOTION_DOT":-0.00069115,"MEAN_MOTION_DDOT":0}},{"id":"68592","name":"KUIPER-00290","constellationId":"kuiper","omm":{"OBJECT_NAME":"KUIPER-00290","OBJECT_ID":"2026-072V","EPOCH":"2026-06-29T12:00:02.998944","MEAN_MOTION":14.94966662,"ECCENTRICITY":0.0013384,"INCLINATION":51.8928,"RA_OF_ASC_NODE":122.6298,"ARG_OF_PERICENTER":69.6426,"MEAN_ANOMALY":278.9503,"EPHEMERIS_TYPE":0,"CLASSIFICATION_TYPE":"U","NORAD_CAT_ID":68592,"ELEMENT_SET_NO":999,"REV_AT_EPOCH":251,"BSTAR":-0.0048863,"MEAN_MOTION_DOT":-0.00053891,"MEAN_MOTION_DDOT":0}},{"id":"68593","name":"KUIPER-00293","constellationId":"kuiper","omm":{"OBJECT_NAME":"KUIPER-00293","OBJECT_ID":"2026-072W","EPOCH":"2026-06-28T21:09:39.673152","MEAN_MOTION":14.79926831,"ECCENTRICITY":0.00032471,"INCLINATION":51.8966,"RA_OF_ASC_NODE":136.4273,"ARG_OF_PERICENTER":86.4108,"MEAN_ANOMALY":273.7225,"EPHEMERIS_TYPE":0,"CLASSIFICATION_TYPE":"U","NORAD_CAT_ID":68593,"ELEMENT_SET_NO":999,"REV_AT_EPOCH":1295,"BSTAR":0.00013213781,"MEAN_MOTION_DOT":0.00000785,"MEAN_MOTION_DDOT":0}},{"id":"68594","name":"KUIPER-00294","constellationId":"kuiper","omm":{"OBJECT_NAME":"KUIPER-00294","OBJECT_ID":"2026-072X","EPOCH":"2026-06-29T12:00:02.998944","MEAN_MOTION":14.92925589,"ECCENTRICITY":0.0009479,"INCLINATION":51.8938,"RA_OF_ASC_NODE":121.5713,"ARG_OF_PERICENTER":56.3603,"MEAN_ANOMALY":92.943,"EPHEMERIS_TYPE":0,"CLASSIFICATION_TYPE":"U","NORAD_CAT_ID":68594,"ELEMENT_SET_NO":999,"REV_AT_EPOCH":583,"BSTAR":-0.0047878,"MEAN_MOTION_DOT":-0.00050126,"MEAN_MOTION_DDOT":0}},{"id":"68595","name":"KUIPER-00296","constellationId":"kuiper","omm":{"OBJECT_NAME":"KUIPER-00296","OBJECT_ID":"2026-072Y","EPOCH":"2026-06-28T03:07:57.986400","MEAN_MOTION":15.38490091,"ECCENTRICITY":0.00098318,"INCLINATION":51.8681,"RA_OF_ASC_NODE":123.995,"ARG_OF_PERICENTER":63.0246,"MEAN_ANOMALY":297.1744,"EPHEMERIS_TYPE":0,"CLASSIFICATION_TYPE":"U","NORAD_CAT_ID":68595,"ELEMENT_SET_NO":999,"REV_AT_EPOCH":1306,"BSTAR":0.0011763439,"MEAN_MOTION_DOT":0.00045327,"MEAN_MOTION_DDOT":0}},{"id":"68596","name":"KUIPER-00297","constellationId":"kuiper","omm":{"OBJECT_NAME":"KUIPER-00297","OBJECT_ID":"2026-072Z","EPOCH":"2026-06-28T13:59:42.219456","MEAN_MOTION":14.76327578,"ECCENTRICITY":0.00011576,"INCLINATION":51.899,"RA_OF_ASC_NODE":137.0943,"ARG_OF_PERICENTER":105.4732,"MEAN_ANOMALY":254.6357,"EPHEMERIS_TYPE":0,"CLASSIFICATION_TYPE":"U","NORAD_CAT_ID":68596,"ELEMENT_SET_NO":999,"REV_AT_EPOCH":1292,"BSTAR":0.000310444,"MEAN_MOTION_DOT":0.0000196,"MEAN_MOTION_DDOT":0}},{"id":"68597","name":"KUIPER-00300","constellationId":"kuiper","omm":{"OBJECT_NAME":"KUIPER-00300","OBJECT_ID":"2026-072AA","EPOCH":"2026-06-28T20:19:45.668640","MEAN_MOTION":14.76442893,"ECCENTRICITY":0.00018426,"INCLINATION":51.9019,"RA_OF_ASC_NODE":133.001,"ARG_OF_PERICENTER":95.6279,"MEAN_ANOMALY":264.4892,"EPHEMERIS_TYPE":0,"CLASSIFICATION_TYPE":"U","NORAD_CAT_ID":68597,"ELEMENT_SET_NO":999,"REV_AT_EPOCH":1300,"BSTAR":0.00030421858,"MEAN_MOTION_DOT":0.00001921,"MEAN_MOTION_DDOT":0}},{"id":"68598","name":"KUIPER-00301","constellationId":"kuiper","omm":{"OBJECT_NAME":"KUIPER-00301","OBJECT_ID":"2026-072AB","EPOCH":"2026-06-28T03:10:54.200064","MEAN_MOTION":15.3843384,"ECCENTRICITY":0.00115157,"INCLINATION":51.8639,"RA_OF_ASC_NODE":123.9694,"ARG_OF_PERICENTER":69.3476,"MEAN_ANOMALY":290.8745,"EPHEMERIS_TYPE":0,"CLASSIFICATION_TYPE":"U","NORAD_CAT_ID":68598,"ELEMENT_SET_NO":999,"REV_AT_EPOCH":1306,"BSTAR":0.0007967643,"MEAN_MOTION_DOT":0.00030473,"MEAN_MOTION_DDOT":0}},{"id":"68599","name":"KUIPER-00304","constellationId":"kuiper","omm":{"OBJECT_NAME":"KUIPER-00304","OBJECT_ID":"2026-072AC","EPOCH":"2026-06-28T20:36:54.434304","MEAN_MOTION":15.38255337,"ECCENTRICITY":0.0012124,"INCLINATION":51.8644,"RA_OF_ASC_NODE":120.5951,"ARG_OF_PERICENTER":68.2084,"MEAN_ANOMALY":292.0192,"EPHEMERIS_TYPE":0,"CLASSIFICATION_TYPE":"U","NORAD_CAT_ID":68599,"ELEMENT_SET_NO":999,"REV_AT_EPOCH":1317,"BSTAR":0.00067744126,"MEAN_MOTION_DOT":0.00025687,"MEAN_MOTION_DDOT":0}},{"id":"68600","name":"KUIPER-00317","constellationId":"kuiper","omm":{"OBJECT_NAME":"KUIPER-00317","OBJECT_ID":"2026-072AD","EPOCH":"2026-06-29T12:00:02.998944","MEAN_MOTION":14.90261877,"ECCENTRICITY":0.0012875,"INCLINATION":51.895,"RA_OF_ASC_NODE":121.4593,"ARG_OF_PERICENTER":76.036,"MEAN_ANOMALY":344.8939,"EPHEMERIS_TYPE":0,"CLASSIFICATION_TYPE":"U","NORAD_CAT_ID":68600,"ELEMENT_SET_NO":999,"REV_AT_EPOCH":373,"BSTAR":-0.0059591,"MEAN_MOTION_DOT":-0.00058281,"MEAN_MOTION_DDOT":0}},{"id":"68601","name":"KUIPER-00320","constellationId":"kuiper","omm":{"OBJECT_NAME":"KUIPER-00320","OBJECT_ID":"2026-072AE","EPOCH":"2026-06-29T12:00:02.998944","MEAN_MOTION":14.79658121,"ECCENTRICITY":0.000012,"INCLINATION":51.9016,"RA_OF_ASC_NODE":126.2018,"ARG_OF_PERICENTER":178.402,"MEAN_ANOMALY":15.4046,"EPHEMERIS_TYPE":0,"CLASSIFICATION_TYPE":"U","NORAD_CAT_ID":68601,"ELEMENT_SET_NO":999,"REV_AT_EPOCH":580,"BSTAR":0.0019388,"MEAN_MOTION_DOT":0.00014495,"MEAN_MOTION_DDOT":0}},{"id":"68864","name":"KUIPER-00299","constellationId":"kuiper","omm":{"OBJECT_NAME":"KUIPER-00299","OBJECT_ID":"2026-095A","EPOCH":"2026-06-28T18:34:29.492544","MEAN_MOTION":14.76449503,"ECCENTRICITY":0.00020012,"INCLINATION":51.8982,"RA_OF_ASC_NODE":197.5931,"ARG_OF_PERICENTER":206.7398,"MEAN_ANOMALY":153.346,"EPHEMERIS_TYPE":0,"CLASSIFICATION_TYPE":"U","NORAD_CAT_ID":68864,"ELEMENT_SET_NO":999,"REV_AT_EPOCH":935,"BSTAR":0.00034069157,"MEAN_MOTION_DOT":0.00002178,"MEAN_MOTION_DDOT":0}},{"id":"68865","name":"KUIPER-00353","constellationId":"kuiper","omm":{"OBJECT_NAME":"KUIPER-00353","OBJECT_ID":"2026-095B","EPOCH":"2026-06-29T12:00:02.998944","MEAN_MOTION":15.17122466,"ECCENTRICITY":0.0002833,"INCLINATION":51.8931,"RA_OF_ASC_NODE":183.4025,"ARG_OF_PERICENTER":15.2032,"MEAN_ANOMALY":83.2665,"EPHEMERIS_TYPE":0,"CLASSIFICATION_TYPE":"U","NORAD_CAT_ID":68865,"ELEMENT_SET_NO":999,"REV_AT_EPOCH":544,"BSTAR":0.0017475,"MEAN_MOTION_DOT":0.00034957,"MEAN_MOTION_DDOT":0}}]}