[
  {
    "name": "KUIPER-00285",
    "noradId": "68589",
    "line1": "1 68589U 26072S   26180.50003471 -.00941454  00000+0 -78630-1 0  9993",
    "line2": "2 68589  51.8939 119.6397 0007654  63.1315 214.3374 15.00719874  3177"
  },
  {
    "name": "KUIPER-00286",
    "noradId": "68590",
    "line1": "1 68590U 26072T   26180.50003471 -.02323635  00000+0 -12163+0 0  9999",
    "line2": "2 68590  51.8818 117.9895 0005467  34.4801  71.9869 15.18872176  5688"
  },
  {
    "name": "KUIPER-00289",
    "noradId": "68591",
    "line1": "1 68591U 26072U   26180.50003471 -.00069115  00000+0 -85358-2 0  9997",
    "line2": "2 68591  51.8981 123.7414 0009087  95.6650 247.7712 14.82703129  4326"
  },
  {
    "name": "KUIPER-00290",
    "noradId": "68592",
    "line1": "1 68592U 26072V   26180.50003471 -.00053891  00000+0 -48863-2 0  9992",
    "line2": "2 68592  51.8928 122.6298 0013384  69.6426 278.9503 14.94966662  2512"
  },
  {
    "name": "KUIPER-00293",
    "noradId": "68593",
    "line1": "1 68593U 26072W   26179.88170918  .00000785  00000+0  13214-3 0  9998",
    "line2": "2 68593  51.8966 136.4273 0003247  86.4108 273.7225 14.79926831 12952"
  },
  {
    "name": "KUIPER-00294",
    "noradId": "68594",
    "line1": "1 68594U 26072X   26180.50003471 -.00050126  00000+0 -47878-2 0  9997",
    "line2": "2 68594  51.8938 121.5713 0009479  56.3603  92.9430 14.92925589  5837"
  },
  {
    "name": "KUIPER-00296",
    "noradId": "68595",
    "line1": "1 68595U 26072Y   26179.13053225  .00045327  00000+0  11763-2 0  9996",
    "line2": "2 68595  51.8681 123.9950 0009831  63.0246 297.1744 15.38490091 13069"
  },
  {
    "name": "KUIPER-00297",
    "noradId": "68596",
    "line1": "1 68596U 26072Z   26179.58312754  .00001960  00000+0  31044-3 0  9991",
    "line2": "2 68596  51.8990 137.0943 0001157 105.4732 254.6357 14.76327578 12927"
  },
  {
    "name": "KUIPER-00300",
    "noradId": "68597",
    "line1": "1 68597U 26072AA  26179.84705635  .00001921  00000+0  30422-3 0  9991",
    "line2": "2 68597  51.9019 133.0010 0001842  95.6279 264.4892 14.76442893 13000"
  },
  {
    "name": "KUIPER-00301",
    "noradId": "68598",
    "line1": "1 68598U 26072AB  26179.13257176  .00030473  00000+0  79676-3 0  9994",
    "line2": "2 68598  51.8639 123.9694 0011515  69.3476 290.8745 15.38433840 13066"
  },
  {
    "name": "KUIPER-00304",
    "noradId": "68599",
    "line1": "1 68599U 26072AC  26179.85896336  .00025687  00000+0  67744-3 0  9995",
    "line2": "2 68599  51.8644 120.5951 0012124  68.2084 292.0192 15.38255337 13177"
  },
  {
    "name": "KUIPER-00317",
    "noradId": "68600",
    "line1": "1 68600U 26072AD  26180.50003471 -.00058281  00000+0 -59591-2 0  9990",
    "line2": "2 68600  51.8950 121.4593 0012875  76.0360 344.8939 14.90261877  3738"
  },
  {
    "name": "KUIPER-00320",
    "noradId": "68601",
    "line1": "1 68601U 26072AE  26180.50003471  .00014495  00000+0  19388-2 0  9998",
    "line2": "2 68601  51.9016 126.2018 0000120 178.4020  15.4046 14.79658121  5807"
  },
  {
    "name": "KUIPER-00299",
    "noradId": "68864",
    "line1": "1 68864U 26095A   26179.77395246  .00002178  00000+0  34069-3 0  9994",
    "line2": "2 68864  51.8982 197.5931 0002001 206.7398 153.3460 14.76449503  9352"
  },
  {
    "name": "KUIPER-00353",
    "noradId": "68865",
    "line1": "1 68865U 26095B   26180.50003471  .00034957  00000+0  17475-2 0  9995",
    "line2": "2 68865  51.8931 183.4025 0002833  15.2032  83.2665 15.17122466  5442"
  }
]